TIANMU-1 19             
1 58660U 23208A   26159.13976138  .00008963  00000+0  29767-3 0  9990
2 58660  97.4492 275.3952 0004589   5.5356 354.5935 15.31438804135948
TIANMU-1 20             
1 58661U 23208B   26159.18458686  .00007163  00000+0  22972-3 0  9991
2 58661  97.4434 276.0662 0006840   8.2382 351.8971 15.32628914136048
TIANMU-1 21             
1 58662U 23208C   26159.18641089  .00008439  00000+0  25145-3 0  9995
2 58662  97.4492 278.7100 0006694   0.4036 359.7211 15.34916483136188
TIANMU-1 22             
1 58663U 23208D   26159.18390314  .00008172  00000+0  27592-3 0  9990
2 58663  97.4487 275.3831 0004064  34.0664 326.0837 15.30933844135957
TIANMU-1 15             
1 58700U 24004A   26159.18643888  .00006608  00000+0  25249-3 0  9993
2 58700  97.4675 345.3758 0007588  32.5809 327.5897 15.26932511134408
TIANMU-1 16             
1 58701U 24004B   26159.17405368  .00006406  00000+0  24694-3 0  9991
2 58701  97.4621 344.6105 0006693  37.1965 322.9736 15.26657859134408
TIANMU-1 17             
1 58702U 24004C   26159.22504772  .00005045  00000+0  19514-3 0  9990
2 58702  97.4650 345.1431 0006369  42.5292 317.6438 15.26655720134407
TIANMU-1 18             
1 58703U 24004D   26159.20294994  .00006427  00000+0  24588-3 0  9993
2 58703  97.4667 345.3708 0004868  42.4121 317.7493 15.26916547134406
INSAT-3DS               
1 58990U 24033A   26159.07480794 -.00000141  00000+0  00000+0 0  9990
2 58990   0.0143 154.3210 0001289 278.9209 292.2390  1.00273229 46973
METEOR-M2 4             
1 59051U 24039A   26159.17964929  .00000024  00000+0  30430-4 0  9997
2 59051  98.7013 118.5911 0006759 186.8179 173.2908 14.22428666117980
GOES 19                 
1 60133U 24119A   26159.11491604  .00000000  00000+0  00000+0 0  9997
2 60133   0.0154  90.4331 0000478  64.7853  67.4679  1.00270085  6870
MTG-S1                  
1 64723U 25143A   26159.12912596 -.00000017  00000+0  00000+0 0  9992
2 64723   0.6113 336.8634 0001056  29.9381 292.7306  1.00271630  3329
